IRIDIUM 39              
1 25042U 97069D   25085.54508278  .00002328  00000+0  60743-3 0  9990
2 25042  86.3875 246.5485 0016640 217.6019 142.4023 14.49039664436992
IRIDIUM 42              
1 25077U 97077A   25085.55006021  .00001287  00000+0  43435-3 0  9999
2 25077  86.3901 274.0060 0002507  74.7323 285.4151 14.36242444429330
IRIDIUM 44              
1 25078U 97077B   25085.51904952  .00001485  00000+0  46438-3 0  9992
2 25078  86.3909 256.1420 0001036  28.8447 331.2810 14.40128394431802
IRIDIUM 45              
1 25104U 97082A   25085.53501127  .00033563  00000+0  13300-2 0  9990
2 25104  86.3541  87.9264 0121542 280.7749  77.9830 15.18586882439483
IRIDIUM 24              
1 25105U 97082B   25085.52865001  .00001255  00000+0  37673-3 0  9997
2 25105  86.3869 115.3750 0011224   3.3363 356.7910 14.41971832431307
